OBJECT_NAME,OBJECT_ID,EPOCH,MEAN_MOTION,ECCENTRICITY,INCLINATION,RA_OF_ASC_NODE,ARG_OF_PERICENTER,MEAN_ANOMALY,EPHEMERIS_TYPE,CLASSIFICATION_TYPE,NORAD_CAT_ID,ELEMENT_SET_NO,REV_AT_EPOCH,BSTAR,MEAN_MOTION_DOT,MEAN_MOTION_DDOT
M2 PATHFINDER,2020-037E,2026-07-21T11:49:33.729600,15.04807577,.00123331,97.8142,34.1129,42.4050,317.8126,0,U,45727,999,33065,.13658851E-3,.1866E-4,0
NETSAT-4,2020-068U,2026-07-21T06:28:32.346912,15.44889408,.00055019,97.8612,213.2778,172.2296,187.9038,0,U,46504,999,32103,.29595451E-3,.13816E-3,0
NETSAT-3,2020-068V,2026-07-20T23:27:46.152864,15.43735580,.00045252,97.8664,211.1373,187.9460,172.1715,0,U,46505,999,32089,.30239743E-3,.13574E-3,0
NETSAT-1,2020-068W,2026-07-21T11:44:30.484608,15.35341622,.00028957,97.8765,205.6071,226.4214,133.6788,0,U,46506,999,32056,.33254401E-3,.11331E-3,0
NETSAT-2,2020-068X,2026-07-21T10:52:35.185728,15.47350099,.00030661,97.8624,213.5042,183.5798,176.5429,0,U,46507,999,32103,.42279327E-3,.21537E-3,0
GREENCUBE (IO-117),2022-080E,2026-07-21T06:26:53.364480,6.42583331,.0009377,70.1384,286.3946,282.6707,77.2904,0,U,53109,999,9425,0,-.3E-7,0
SITRO-AIS 5 (KATYS),2023-091L,2026-07-21T14:32:10.661280,15.30155332,.00099831,97.5039,266.8466,349.0614,11.0408,0,U,57176,999,16960,.36196447E-3,.10503E-3,0
SITRO-AIS 6 (CHIRKIN),2023-091AC,2026-07-21T14:23:51.077472,15.26512220,.00105233,97.5046,265.7741,353.7712,6.3394,0,U,57192,999,16953,.34529647E-3,.8958E-4,0
SITRO-AIS 8 (ANOKHIN),2023-091AD,2026-07-21T15:01:50.217888,15.32967175,.00088802,97.5034,268.6000,343.7652,16.3304,0,U,57193,999,16972,.41455641E-3,.13144E-3,0
SITRO-AIS 7 (FARTUSHNIY),2023-091AE,2026-07-21T14:38:46.576320,15.26183814,.00104617,97.5042,265.5910,355.0892,5.0242,0,U,57194,999,16952,.32243575E-3,.8276E-4,0
SITRO-AIS 10 (BURDAEV),2023-091AK,2026-07-21T15:20:10.591872,15.39788720,.00044557,97.5059,274.0325,311.9648,48.1217,0,U,57199,999,17006,.48584745E-3,.19195E-3,0
SITRO-AIS 9 (SHCHUKIN),2023-091AM,2026-07-21T14:40:50.772000,15.39268530,.00047124,97.5057,273.7067,312.5344,47.5503,0,U,57201,999,17004,.48738137E-3,.1893E-3,0
SITRO-AIS 12 (SMIRENNIY),2023-091AQ,2026-07-21T14:17:53.054880,15.39565498,.00043607,97.5069,274.1794,304.2088,55.8744,0,U,57204,999,17006,.48530864E-3,.19033E-3,0
SITRO-AIS 11 (SHEFFER),2023-091AU,2026-07-21T14:23:09.850848,15.40014119,.00042915,97.5068,274.4519,303.8822,56.2015,0,U,57208,999,17008,.49144216E-3,.19561E-3,0
SITRO-AIS 25,2024-039R,2026-07-21T14:40:11.764128,14.93667396,.01434226,95.3886,258.7476,206.8688,152.5061,0,U,59066,999,12986,.19329923E-3,.2467E-4,0
SITRO-AIS 26,2024-039S,2026-07-21T14:49:01.326144,14.93458840,.01436939,95.3889,258.6420,207.4572,151.9011,0,U,59067,999,12985,.17118494E-3,.217E-4,0
SITRO-AIS 27,2024-039T,2026-07-21T15:28:38.896032,14.93886034,.01427853,95.3891,258.9488,205.8297,153.5754,0,U,59068,999,12988,.27934026E-3,.3597E-4,0
SITRO-AIS 28,2024-039U,2026-07-21T14:55:02.902368,14.93915908,.01427578,95.3888,258.9820,205.8008,153.6052,0,U,59071,999,12988,.21171033E-3,.2719E-4,0
GRBBETA,2024-128C,2026-07-21T04:45:30.523680,15.06835113,.00362625,61.9889,96.9197,142.0386,218.3274,0,U,60237,999,11139,.16705753E-3,.2318E-4,0
OOV-CUBE (TUBSAT-30),2024-128F,2026-07-21T10:54:48.644352,15.02891484,.00402885,61.9942,106.0728,141.4397,218.9585,0,U,60240,999,11126,.12029468E-3,.1434E-4,0
ROBUSTA-3A (MEDITERRANEE),2024-128J,2026-07-21T09:28:40.738080,15.12041475,.00372568,61.9861,87.2386,135.0234,225.3890,0,U,60243,999,11159,.33110944E-3,.559E-4,0
LASARSAT,2024-247Q,2026-07-21T01:29:22.653600,15.48302336,.00082489,44.9738,71.5646,202.6776,157.3752,0,U,62391,999,8856,.50949715E-3,.27288E-3,0
CROCUBE,2024-247T,2026-07-21T15:49:36.031584,15.50548927,.00086465,44.9713,64.9220,212.7388,147.2968,0,U,62394,999,8869,.71514974E-3,.41735E-3,0
FORESAIL-1 PRIME,2025-276DS,2026-07-21T10:51:38.346624,15.18971994,.00023716,97.4183,275.0997,29.5644,330.5724,0,U,66778,999,3560,.1624144E-3,.3328E-4,0
KNACKSAT-2,1998-067XZ,2026-07-21T00:20:48.621696,15.62823140,.00078407,51.6271,123.9445,347.8251,12.2553,0,U,67683,999,2556,.48283553E-3,.44153E-3,0
